{
  "norad_id": 45080,
  "name": "STARLINK-1153",
  "history": [
    {
      "epoch": "2026-03-28T11:47:53.525472",
      "apogee_km": 475.53446895599154,
      "perigee_km": 471.72118775841864,
      "latitude_deg": 52.5324045890141,
      "longitude_deg": 175.1928060799837,
      "semi_major_axis_km": 6851.764828357205,
      "eccentricity": 0.00027827,
      "inclination_deg": 53.1615,
      "raan_deg": 170.4723,
      "arg_perigee_deg": 33.0678,
      "mean_anomaly_deg": 327.0497,
      "mean_motion_rev_day": 15.30731747
    }
  ]
}