{"fetched_at":"2026-03-30T13:17:50Z","count":15418,"tles":[{"name":"STARLINK-1153","line1":"1 45080U 20006AN  26087.49159173  .00049427  00000+0  16426-2 0  9993","line2":"2 45080  53.1615 170.4723 0002782  33.0678 327.0497 15.30731747339757","category":"Starlink"}]}